     2.10           NAVIGATION                              RINEX VERSION / TYPE
hgextrnav           John Knutson        11/05/2015 16:40:05 PGM / RUN BY / DATE
   .745058D-08 .711478D-08-.603921D-08-.384468D-08          ION ALPHA
   .901120D+05 .365063D+05-.664019D+04-.169091D+05          ION BETA
     -.931322574615D-09-.355271367880D-14   233472     1854 DELTA-UTC: A0,A1,T,W
    17                                                      LEAP SECONDS
                                                            END OF HEADER
 2 15  7 19  4  0  0.0  .679100567847D-03  .327373675443D-11  .100000000000D+00
     .180000000000D+02 -.765000000000D+02  .590663295239D-08 -.409046147527D+00
    -.437697565556D-05  .246592801902D-01  .200117176771D-04  .415360068703D+04
     .144000000000D+05 -.379396772385D-07 -.396611353216D+01  .310478901863D-06
     .841586679425D+00  .282343750000D+03 -.324764079730D+01 -.938820654533D-08
     .707168148133D-10  .100000000000D+01  .285400000000D+04  .000000000000D+00
     .240000000000D+01  .000000000000D+00 -.204890966415D-07  .180000000000D+02
     .720600000000D+04  .400000000000D+01
 5 15  7 19  3 59 44.0 -.216379296035D-03  .432009983342D-11  .000000000000D+00
     .190000000000D+02  .369375000000D+02  .511592738462D-08  .218771233916D+01
     .200793147087D-05  .422249664553D-02  .823289155960D-05  .515360180473D+04
     .143840000000D+05 -.175088644028D-06 -.189462874179D+01  .335276126862D-07
     .946122987969D+00  .214593750000D+03  .374892043461D+00 -.823034282681D-08
     .492877673191D-09  .100000000000D+01  .185400000000D+04  .000000000000D+00
     .240000000000D+01  .000000000000D+00 -.107102096081D-07  .190000000000D+02
     .720600000000D+04  .400000000000D+01
12 15  7 19  4  0  0.0  .311175826937D-03  .329691829393D-11  .000000000000D+00
     .350000000000D+02  .878125000000D+02  .376194241429D-08 -.199946096128D+01
     .462308526039D-05  .555651297327D-02  .564381480217D-05  .515364581490D+04
     .144000000000D+05 -.521540641785D-07  .130196171426D+01 -.800937414169D-07
     .989702270101D+00  .287625000000D+03  .637400193614D+00 -.774317967737D-08
     .322870591713D-09  .100000000000D+01  .185400000000D+04  .000000000000D+00
     .240000000000D+01  .000000000000D+00 -.125728547573D-07  .350000000000D+02
     .720600000000D+04  .400000000000D+01
13 15  7 19  4  0  0.0 -.133395660669D-03 -.329691829393D-11  .000000000000D+00
     .110000000000D+02 -.234375000000D+02  .467340895196D-08 -.681465555147D+00
    -.110082328320D-05  .489145040046D-02  .573135912418D-05  .515367861366D+04
     .144000000000D+05  .484287738800D-07 -.728043769602D+00 -.726431608200D-07
     .973615781520D+00  .273531250000D+03  .209943073072D+01 -.823534303509D-08
    -.383944564261D-09  .100000000000D+01  .185400000000D+04  .000000000000D+00
     .240000000000D+01  .000000000000D+00 -.111758708954D-07  .110000000000D+02
     .720600000000D+04  .400000000000D+01
15 15  7 19  4  0  0.0 -.261253211647D-03 -.204636307899D-11  .000000000000D+00
     .430000000000D+02 -.128125000000D+02  .569452291402D-08  .603214997503D+00
    -.497326254845D-06  .722495908849D-02  .437162816525D-05  .515367177010D+04
     .144000000000D+05  .353902578354D-07 -.888840174755D+00  .316649675369D-07
     .932663524288D+00  .275593750000D+03  .391941497868D+00 -.875286459194D-08
    -.397873715894D-09  .100000000000D+01  .185400000000D+04  .000000000000D+00
     .240000000000D+01  .000000000000D+00 -.107102096081D-07  .430000000000D+02
     .720600000000D+04  .400000000000D+01
18 15  7 19  4  0  0.0  .418381765485D-03  .306954461848D-11  .000000000000D+00
     .470000000000D+02  .481875000000D+02  .542451166697D-08  .282791792104D+01
     .234320759773D-05  .163545152172D-01  .796839594841D-05  .515361822319D+04
     .144000000000D+05  .102445483208D-06 -.190894005536D+01 -.197440385818D-06
     .924721554159D+00  .203375000000D+03 -.194656713929D+01 -.817319758934D-08
     .441804117201D-09  .100000000000D+01  .185400000000D+04  .000000000000D+00
     .240000000000D+01  .000000000000D+00 -.111758708954D-07  .470000000000D+02
     .720600000000D+04  .400000000000D+01
20 15  7 19  4  0  0.0  .339598860592D-03  .318323145621D-11  .000000000000D+00
     .300000000000D+01  .431875000000D+02  .556594612971D-08  .664091735229D+00
     .237300992012D-05  .478379894048D-02  .843778252602D-05  .515361157227D+04
     .144000000000D+05 -.502914190292D-07 -.196121837504D+01  .521540641785D-07
     .925953579878D+00  .199906250000D+03  .117989622179D+01 -.856749972790D-08
     .432875173846D-09  .100000000000D+01  .185400000000D+04  .000000000000D+00
     .240000000000D+01  .000000000000D+00 -.838190317154D-08  .300000000000D+01
     .720600000000D+04  .400000000000D+01
21 15  7 19  4  0  0.0 -.464903656393D-03 -.318323145621D-11  .000000000000D+00
     .340000000000D+02 -.795937500000D+02  .475555523082D-08 -.240702446100D+01
    -.432319939137D-05  .224872800754D-01  .101048499346D-04  .515379771614D+04
     .144000000000D+05  .316649675369D-06 -.295189720001D+01  .651925802231D-07
     .934665811486D+00  .159906250000D+03 -.189264204638D+01 -.780139638805D-08
     .223937899341D-09  .100000000000D+01  .185400000000D+04  .000000000000D+00
     .240000000000D+01  .000000000000D+00 -.116415321827D-07  .340000000000D+02
     .720600000000D+04  .400000000000D+01
25 15  7 19  4  0  0.0 -.147181563079D-04 -.454747350886D-11  .000000000000D+00
     .850000000000D+02  .916875000000D+02  .396195074544D-08 -.266315918764D+01
     .483542680740D-05  .465148058720D-02  .587664544582D-05  .515365454102D+04
     .144000000000D+05 -.335276126862D-07  .125470817001D+01  .540167093277D-07
     .978192506101D+00  .275875000000D+03  .755847861880D+00 -.784318384295D-08
     .345728686702D-09  .100000000000D+01  .185400000000D+04  .000000000000D+00
     .240000000000D+01  .000000000000D+00  .512227416039D-08  .850000000000D+02
     .720600000000D+04  .400000000000D+01
29 15  7 19  4  0  0.0  .623179133981D-03  .204636307899D-11  .000000000000D+00
     .800000000000D+02 -.657187500000D+02  .434589530970D-08 -.248712593770D+01
    -.330805778503D-05  .107501784805D-02  .330619513988D-05  .515372945404D+04
     .144000000000D+05 -.931322574615D-08  .235639009697D+01 -.745058059692D-08
     .973942016640D+00  .322125000000D+03 -.483003759548D+00 -.820034157714D-08
    -.725030200418D-10  .100000000000D+01  .185400000000D+04  .000000000000D+00
     .240000000000D+01  .000000000000D+00 -.102445483208D-07  .800000000000D+02
     .720600000000D+04  .400000000000D+01
26 15  7 19  4  0  0.0 -.108969397843D-04 -.579802872380D-11  .000000000000D+00
     .490000000000D+02  .982187500000D+02  .446697178159D-08  .178371179398D+01
     .507757067680D-05  .292196054943D-03  .613741576672D-05  .515360602760D+04
     .144000000000D+05  .633299350739D-07  .125121089318D+01  .745058059692D-08
     .960296762363D+00  .261625000000D+03  .127785617440D+01 -.823069998455D-08
     .322870591713D-09  .100000000000D+01  .185400000000D+04  .000000000000D+00
     .240000000000D+01  .000000000000D+00  .745058059692D-08  .490000000000D+02
     .762600000000D+04  .400000000000D+01
16 15  7 19  4  0  0.0 -.107023864985D-03  .409272615798D-11  .000000000000D+00
     .530000000000D+02  .956250000000D+02  .383908848487D-08  .225239302231D+01
     .484846532345D-05  .811273755971D-02  .625476241112D-05  .515358941460D+04
     .144000000000D+05 -.819563865662D-07  .132066190202D+01  .558793544769D-08
     .990234188577D+00  .276218750000D+03  .321265059602D+00 -.786532762247D-08
     .296083761649D-09  .100000000000D+01  .185400000000D+04  .000000000000D+00
     .240000000000D+01  .000000000000D+00 -.102445483208D-07  .530000000000D+02
     .106260000000D+05  .400000000000D+01
22 15  7 19  4  0  0.0  .372494570911D-03  .386535248253D-11  .000000000000D+00
     .400000000000D+02  .439062500000D+02  .559059001337D-08  .235889706165D+01
     .221841037273D-05  .803672906477D-02  .827200710773D-05  .515368514061D+04
     .144000000000D+05  .409781932831D-07 -.190786737653D+01 -.124797224998D-06
     .922539563567D+00  .200406250000D+03 -.203813222640D+01 -.837034865862D-08
     .510021244432D-09  .100000000000D+01  .185400000000D+04  .000000000000D+00
     .340000000000D+01  .000000000000D+00 -.176951289177D-07  .400000000000D+02
     .107460000000D+05  .400000000000D+01
24 15  7 19  4  0  0.0 -.156648457050D-05 -.682121026330D-12  .000000000000D+00
     .620000000000D+02  .118437500000D+02  .442661295763D-08 -.607258447483D+00
     .467523932457D-06  .326363625936D-02  .105369836092D-04  .515367152786D+04
     .144000000000D+05  .726431608200D-07  .190559398867D+00  .707805156708D-07
     .953286726641D+00  .174937500000D+03  .348288379335D+00 -.796926052312D-08
    -.477519890620D-09  .100000000000D+01  .185400000000D+04  .000000000000D+00
     .240000000000D+01  .000000000000D+00  .232830643654D-08  .620000000000D+02
     .121560000000D+05  .400000000000D+01
13 15  7 19  6  0  0.0 -.133419875056D-03 -.329691829393D-11  .000000000000D+00
     .290000000000D+02 -.158125000000D+02  .474198323692D-08  .368668557348D+00
    -.836327672005D-06  .488991034217D-02  .546500086784D-05  .515367564774D+04
     .216000000000D+05 -.558793544769D-07 -.728103474215D+00 -.372529029846D-08
     .973613531552D+00  .281406250000D+03  .209947707743D+01 -.819176979152D-08
    -.282511767749D-09  .100000000000D+01  .185400000000D+04  .000000000000D+00
     .240000000000D+01  .000000000000D+00 -.111758708954D-07  .290000000000D+02
     .144060000000D+05  .400000000000D+01
